UNKNOWN                 
1 81745U          25330.53372246  .00003315  00000+0  10626-2 0  9998
2 81745  71.0015  62.9911 0007734 254.5987 105.4294 14.40207558627411
UNKNOWN                 
1 81749U          25319.57490487  .00000211  00000+0  84989-3 0  9997
2 81749  99.6904 353.3665 0369757 269.7481 249.3097 12.77597143558539
UNKNOWN                 
1 81775U          25327.77237560  .00005978  00000+0  18704-2 0  9994
2 81775  82.9191 239.9970 0018577 319.7970  40.1847 14.40489356622540
UNKNOWN                 
1 81792U          25327.88757530  .00001362  00000+0  50224-3 0  9996
2 81792  65.8234 138.2379 0897016 290.6780  60.0379 13.10805038 77562
UNKNOWN                 
1 81812U          25330.49204636 -.00000124  00000+0 -43703-3 0  9995
2 81812 103.8191 240.0561 0325277 276.7909  79.6241 12.37696935538555
UNKNOWN                 
1 81816U          25322.84142176  .00003046  00000+0  22339-2 0  9994
2 81816  66.2400 355.7104 0184164 259.2191  98.8105 13.89398010606029
UNKNOWN                 
1 81819U          25330.22182050  .00001063  00000+0  75058-2 0  9996
2 81819 102.1787  67.1604 0037000 151.9048 208.4026 12.47609436545959
UNKNOWN                 
1 81833U          25323.83895695  .00000177  00000+0  61298-3 0  9994
2 81833  90.2429   2.4100 0028510  85.7081 274.7295 12.93714832449556
UNKNOWN                 
1 81844U          25330.21516663  .00005580  00000+0  20036-2 0  9998
2 81844  82.9110 296.0686 0061020 202.4071 157.4451 14.32693651620522
UNKNOWN                 
1 81845U          25329.48689644  .00003182  00000+0  35488-3 0  9990
2 81845  97.6751 157.1251 0088346   2.7409  27.0045 14.84919478646960
