CCSDS_OMM_VERS = 2.0
CREATION_DATE  = 
ORIGINATOR     = 

OBJECT_NAME    = UNKNOWN
OBJECT_ID      = 
CENTER_NAME    = EARTH
REF_FRAME      = TEME
TIME_SYSTEM    = UTC
MEAN_ELEMENT_THEORY = SGP/SGP4

EPOCH          = 2025-11-26T12:48:33.620544
MEAN_MOTION    = 14.40207558
ECCENTRICITY   = .0007734
INCLINATION    = 71.0015
RA_OF_ASC_NODE = 62.9911
ARG_OF_PERICENTER = 254.5987
MEAN_ANOMALY   = 105.4294

EPHEMERIS_TYPE = 0
CLASSIFICATION_TYPE = U
NORAD_CAT_ID   = 81745
ELEMENT_SET_NO = 999
REV_AT_EPOCH   = 62741
BSTAR          = .10626E-2
MEAN_MOTION_DOT = .3315E-4
MEAN_MOTION_DDOT = 0

CCSDS_OMM_VERS = 2.0
CREATION_DATE  = 
ORIGINATOR     = 

OBJECT_NAME    = UNKNOWN
OBJECT_ID      = 
CENTER_NAME    = EARTH
REF_FRAME      = TEME
TIME_SYSTEM    = UTC
MEAN_ELEMENT_THEORY = SGP/SGP4

EPOCH          = 2025-11-15T13:47:51.780768
MEAN_MOTION    = 12.77597143
ECCENTRICITY   = .0369757
INCLINATION    = 99.6904
RA_OF_ASC_NODE = 353.3665
ARG_OF_PERICENTER = 269.7481
MEAN_ANOMALY   = 249.3097

EPHEMERIS_TYPE = 0
CLASSIFICATION_TYPE = U
NORAD_CAT_ID   = 81749
ELEMENT_SET_NO = 999
REV_AT_EPOCH   = 55853
BSTAR          = .84989E-3
MEAN_MOTION_DOT = .211E-5
MEAN_MOTION_DDOT = 0

CCSDS_OMM_VERS = 2.0
CREATION_DATE  = 
ORIGINATOR     = 

OBJECT_NAME    = UNKNOWN
OBJECT_ID      = 
CENTER_NAME    = EARTH
REF_FRAME      = TEME
TIME_SYSTEM    = UTC
MEAN_ELEMENT_THEORY = SGP/SGP4

EPOCH          = 2025-11-23T18:32:13.251840
MEAN_MOTION    = 14.40489356
ECCENTRICITY   = .0018577
INCLINATION    = 82.9191
RA_OF_ASC_NODE = 239.9970
ARG_OF_PERICENTER = 319.7970
MEAN_ANOMALY   = 40.1847

EPHEMERIS_TYPE = 0
CLASSIFICATION_TYPE = U
NORAD_CAT_ID   = 81775
ELEMENT_SET_NO = 999
REV_AT_EPOCH   = 62254
BSTAR          = .18704E-2
MEAN_MOTION_DOT = .5978E-4
MEAN_MOTION_DDOT = 0

CCSDS_OMM_VERS = 2.0
CREATION_DATE  = 
ORIGINATOR     = 

OBJECT_NAME    = UNKNOWN
OBJECT_ID      = 
CENTER_NAME    = EARTH
REF_FRAME      = TEME
TIME_SYSTEM    = UTC
MEAN_ELEMENT_THEORY = SGP/SGP4

EPOCH          = 2025-11-23T21:18:06.505920
MEAN_MOTION    = 13.10805038
ECCENTRICITY   = .0897016
INCLINATION    = 65.8234
RA_OF_ASC_NODE = 138.2379
ARG_OF_PERICENTER = 290.6780
MEAN_ANOMALY   = 60.0379

EPHEMERIS_TYPE = 0
CLASSIFICATION_TYPE = U
NORAD_CAT_ID   = 81792
ELEMENT_SET_NO = 999
REV_AT_EPOCH   = 7756
BSTAR          = .50224E-3
MEAN_MOTION_DOT = .1362E-4
MEAN_MOTION_DDOT = 0

CCSDS_OMM_VERS = 2.0
CREATION_DATE  = 
ORIGINATOR     = 

OBJECT_NAME    = UNKNOWN
OBJECT_ID      = 
CENTER_NAME    = EARTH
REF_FRAME      = TEME
TIME_SYSTEM    = UTC
MEAN_ELEMENT_THEORY = SGP/SGP4

EPOCH          = 2025-11-26T11:48:32.805504
MEAN_MOTION    = 12.37696935
ECCENTRICITY   = .0325277
INCLINATION    = 103.8191
RA_OF_ASC_NODE = 240.0561
ARG_OF_PERICENTER = 276.7909
MEAN_ANOMALY   = 79.6241

EPHEMERIS_TYPE = 0
CLASSIFICATION_TYPE = U
NORAD_CAT_ID   = 81812
ELEMENT_SET_NO = 999
REV_AT_EPOCH   = 53855
BSTAR          = -.43703E-3
MEAN_MOTION_DOT = -.124E-5
MEAN_MOTION_DDOT = 0

CCSDS_OMM_VERS = 2.0
CREATION_DATE  = 
ORIGINATOR     = 

OBJECT_NAME    = UNKNOWN
OBJECT_ID      = 
CENTER_NAME    = EARTH
REF_FRAME      = TEME
TIME_SYSTEM    = UTC
MEAN_ELEMENT_THEORY = SGP/SGP4

EPOCH          = 2025-11-18T20:11:38.840064
MEAN_MOTION    = 13.89398010
ECCENTRICITY   = .0184164
INCLINATION    = 66.2400
RA_OF_ASC_NODE = 355.7104
ARG_OF_PERICENTER = 259.2191
MEAN_ANOMALY   = 98.8105

EPHEMERIS_TYPE = 0
CLASSIFICATION_TYPE = U
NORAD_CAT_ID   = 81816
ELEMENT_SET_NO = 999
REV_AT_EPOCH   = 60602
BSTAR          = .22339E-2
MEAN_MOTION_DOT = .3046E-4
MEAN_MOTION_DDOT = 0

CCSDS_OMM_VERS = 2.0
CREATION_DATE  = 
ORIGINATOR     = 

OBJECT_NAME    = UNKNOWN
OBJECT_ID      = 
CENTER_NAME    = EARTH
REF_FRAME      = TEME
TIME_SYSTEM    = UTC
MEAN_ELEMENT_THEORY = SGP/SGP4

EPOCH          = 2025-11-26T05:19:25.291200
MEAN_MOTION    = 12.47609436
ECCENTRICITY   = .0037
INCLINATION    = 102.1787
RA_OF_ASC_NODE = 67.1604
ARG_OF_PERICENTER = 151.9048
MEAN_ANOMALY   = 208.4026

EPHEMERIS_TYPE = 0
CLASSIFICATION_TYPE = U
NORAD_CAT_ID   = 81819
ELEMENT_SET_NO = 999
REV_AT_EPOCH   = 54595
BSTAR          = .75058E-2
MEAN_MOTION_DOT = .1063E-4
MEAN_MOTION_DDOT = 0

CCSDS_OMM_VERS = 2.0
CREATION_DATE  = 
ORIGINATOR     = 

OBJECT_NAME    = UNKNOWN
OBJECT_ID      = 
CENTER_NAME    = EARTH
REF_FRAME      = TEME
TIME_SYSTEM    = UTC
MEAN_ELEMENT_THEORY = SGP/SGP4

EPOCH          = 2025-11-19T20:08:05.880480
MEAN_MOTION    = 12.93714832
ECCENTRICITY   = .002851
INCLINATION    = 90.2429
RA_OF_ASC_NODE = 2.4100
ARG_OF_PERICENTER = 85.7081
MEAN_ANOMALY   = 274.7295

EPHEMERIS_TYPE = 0
CLASSIFICATION_TYPE = U
NORAD_CAT_ID   = 81833
ELEMENT_SET_NO = 999
REV_AT_EPOCH   = 44955
BSTAR          = .61298E-3
MEAN_MOTION_DOT = .177E-5
MEAN_MOTION_DDOT = 0

CCSDS_OMM_VERS = 2.0
CREATION_DATE  = 
ORIGINATOR     = 

OBJECT_NAME    = UNKNOWN
OBJECT_ID      = 
CENTER_NAME    = EARTH
REF_FRAME      = TEME
TIME_SYSTEM    = UTC
MEAN_ELEMENT_THEORY = SGP/SGP4

EPOCH          = 2025-11-26T05:09:50.396832
MEAN_MOTION    = 14.32693651
ECCENTRICITY   = .006102
INCLINATION    = 82.9110
RA_OF_ASC_NODE = 296.0686
ARG_OF_PERICENTER = 202.4071
MEAN_ANOMALY   = 157.4451

EPHEMERIS_TYPE = 0
CLASSIFICATION_TYPE = U
NORAD_CAT_ID   = 81844
ELEMENT_SET_NO = 999
REV_AT_EPOCH   = 62052
BSTAR          = .20036E-2
MEAN_MOTION_DOT = .558E-4
MEAN_MOTION_DDOT = 0

CCSDS_OMM_VERS = 2.0
CREATION_DATE  = 
ORIGINATOR     = 

OBJECT_NAME    = UNKNOWN
OBJECT_ID      = 
CENTER_NAME    = EARTH
REF_FRAME      = TEME
TIME_SYSTEM    = UTC
MEAN_ELEMENT_THEORY = SGP/SGP4

EPOCH          = 2025-11-25T11:41:07.852416
MEAN_MOTION    = 14.84919478
ECCENTRICITY   = .0088346
INCLINATION    = 97.6751
RA_OF_ASC_NODE = 157.1251
ARG_OF_PERICENTER = 2.7409
MEAN_ANOMALY   = 27.0045

EPHEMERIS_TYPE = 0
CLASSIFICATION_TYPE = U
NORAD_CAT_ID   = 81845
ELEMENT_SET_NO = 999
REV_AT_EPOCH   = 64696
BSTAR          = .35488E-3
MEAN_MOTION_DOT = .3182E-4
MEAN_MOTION_DDOT = 0

